NORAD_CAT_ID,OBJECT_NAME,OBJECT_TYPE,EPOCH,MEAN_MOTION,ECCENTRICITY,INCLINATION,RA_OF_ASC_NODE,ARG_OF_PERICENTER,MEAN_ANOMALY,BSTAR,MEAN_MOTION_DOT,MEAN_MOTION_DDOT,TLE_LINE0,TLE_LINE1,TLE_LINE2,SEMIMAJOR_AXIS,PERIOD,APOGEE,PERIGEE,DECAYED
51743.0,STARLINK-3512,PAYLOAD,2022-07-29 22:00:00,15.08844175,0.0002046999999999,53.2159,109.3234,55.5533,146.8905,-0.0014767,-0.00023716,0.0,0 STARLINK-3512,1 51743U 22016AF  22210.91667824 -.00023716  00000-0 -14767-2 0  9999,2 51743  53.2159 109.3234 0002047  55.5533 146.8905 15.08844175  1308,6917.868,95.437,541.149,538.317,0.0
51743.0,STARLINK-3512,PAYLOAD,2022-07-30 06:00:00,15.08835522,0.0002106999999999,53.2154,107.8274,52.6794,161.3533,0.00053502,8.236e-05,0.0,0 STARLINK-3512,1 51743U 22016AF  22211.25001157  .00008236  00000-0  53502-3 0  9997,2 51743  53.2154 107.8274 0002107  52.6794 161.3533 15.08835522 25798,6917.894,95.438,541.217,538.3009999999998,0.0
51743.0,STARLINK-3512,PAYLOAD,2022-07-30 14:00:01,15.08817714,0.0001952,53.2154,106.3294,59.2707,166.3613,0.0026618,0.00042304,0.0,0 STARLINK-3512,1 51743U 22016AF  22211.58334491  .00042304  00000-0  26618-2 0  9994,2 51743  53.2154 106.3294 0001952  59.2707 166.3613 15.08817714  1306,6917.949000000001,95.439,541.164,538.4630000000002,0.0
51743.0,STARLINK-3512,PAYLOAD,2022-07-30 22:00:00,15.08852992,0.0002066999999999,53.2154,104.8344,57.7415,179.47799999999995,-0.0013798,-0.00022189,0.0,0 STARLINK-3512,1 51743U 22016AF  22211.91667824 -.00022189  00000-0 -13798-2 0  9996,2 51743  53.2154 104.8344 0002067  57.7415 179.4780 15.08852992  1309,6917.840999999999,95.437,541.136,538.276,0.0
51743.0,STARLINK-3512,PAYLOAD,2022-07-31 06:00:02,15.08849857,0.00021,53.2149,103.3381,55.4052,193.4753,-0.0002592,-4.412e-05,0.0,0 STARLINK-3512,1 51743U 22016AF  22212.25002315 -.00004412  00000-0 -25920-3 0  9992,2 51743  53.2149 103.3381 0002100  55.4052 193.4753 15.08849857 25946,6917.85,95.437,541.168,538.263,0.0
51743.0,STARLINK-3512,PAYLOAD,2022-07-31 14:00:01,15.08838361,0.0001945,53.2148,101.8401,62.0212,198.4081,0.00046747,7.159e-05,0.0,0 STARLINK-3512,1 51743U 22016AF  22212.58334491  .00007159  00000-0  46747-3 0  9990,2 51743  53.2148 101.8401 0001945  62.0212 198.4081 15.08838361  1300,6917.885,95.438,541.096,538.405,0.0
51743.0,STARLINK-3512,PAYLOAD,2022-07-31 22:00:00,15.08833552,0.0002009999999999,53.2147,100.3451,58.3705,213.6604,-0.0012373,-0.00019923,0.0,0 STARLINK-3512,1 51743U 22016AF  22212.91667824 -.00019923  00000-0 -12373-2 0  9997,2 51743  53.2147 100.3451 0002010  58.3705 213.6604 15.08833552  1305,6917.9,95.438,541.156,538.375,0.0
51743.0,STARLINK-3512,PAYLOAD,2022-08-01 14:00:01,15.08810187,0.0001946,53.2142,97.3506,63.1325,232.0673,0.0028365,0.00045108,0.0,0 STARLINK-3512,1 51743U 22016AF  22213.58334491  .00045108  00000-0  28365-2 0  9992,2 51743  53.2142  97.3506 0001946  63.1325 232.0673 15.08810187  1305,6917.972,95.439,541.183,538.49,0.0
51743.0,STARLINK-3512,PAYLOAD,2022-08-01 22:00:00,15.08843052,0.0002078,53.2142,95.8557,59.7578,247.0235,-0.0010699,-0.00017277,0.0,0 STARLINK-3512,1 51743U 22016AF  22213.91667824 -.00017277  00000-0 -10699-2 0  9997,2 51743  53.2142  95.8557 0002078  59.7578 247.0235 15.08843052  1309,6917.871,95.437,541.174,538.299,0.0
51743.0,STARLINK-3512,PAYLOAD,2022-08-02 06:00:02,15.08852381,0.0002078,53.2139,94.359,57.5466,260.8847,-0.0012477,-0.00020098,0.0,0 STARLINK-3512,1 51743U 22016AF  22214.25002315 -.00020098  00000-0 -12477-2 0  9994,2 51743  53.2139  94.3590 0002078  57.5466 260.8847 15.08852381 26245,6917.843000000003,95.437,541.145,538.27,0.0
51743.0,STARLINK-3512,PAYLOAD,2022-08-02 14:00:01,15.08826723,0.0001993,53.2141,92.861,64.2885,265.6866,0.0021926,0.00034767,0.0,0 STARLINK-3512,1 51743U 22016AF  22214.58334491  .00034767  00000-0  21926-2 0  9998,2 51743  53.2141  92.8610 0001993  64.2885 265.6866 15.08826723 26299,6917.920999999999,95.438,541.165,538.4069999999998,0.0
51743.0,STARLINK-3512,PAYLOAD,2022-08-03 06:00:00,15.08856451,0.0002069,53.2141,89.8692,57.4918,295.6837,-0.0033506,-0.00053245,0.0,0 STARLINK-3512,1 51743U 22016AF  22215.25001157 -.00053245  00000-0 -33506-2 0  9994,2 51743  53.2141  89.8692 0002069  57.4918 295.6837 15.08856451 26394,6917.83,95.437,541.126,538.264,0.0
51743.0,STARLINK-3512,PAYLOAD,2022-08-03 14:00:01,15.08809463,0.0001985,53.2144,88.3712,63.8801,300.8941,0.0028519,0.00045355,0.0,0 STARLINK-3512,1 51743U 22016AF  22215.58334491  .00045355  00000-0  28519-2 0  9999,2 51743  53.2144  88.3712 0001985  63.8801 300.8941 15.08809463  1302,6917.974,95.439,541.212,538.466,0.0
51743.0,STARLINK-3512,PAYLOAD,2022-08-03 22:00:01,15.08837916,0.0002143,53.2146,86.8764,59.6279,316.7866,-0.00088009,-0.00014267,0.0,0 STARLINK-3512,1 51743U 22016AF  22215.91668981 -.00014267  00000-0 -88009-3 0  9991,2 51743  53.2146  86.8764 0002143  59.6279 316.7866 15.08837916 26508,6917.887,95.438,541.234,538.269,0.0
51743.0,STARLINK-3512,PAYLOAD,2022-08-04 14:00:01,15.08827594,0.0002048,53.2151,83.8817,65.0717,334.4663,0.0025663,0.00040778,0.0,0 STARLINK-3512,1 51743U 22016AF  22216.58334491  .00040778  00000-0  25663-2 0  9991,2 51743  53.2151  83.8817 0002048  65.0717 334.4663 15.08827594  1306,6917.918000000002,95.438,541.2,538.367,0.0
51743.0,STARLINK-3512,PAYLOAD,2022-08-04 22:00:00,15.08860762,0.0002168,53.2153,82.387,60.2183,350.9159,-0.0025485,-0.00040644,0.0,0 STARLINK-3512,1 51743U 22016AF  22216.91667824 -.00040644  00000-0 -25485-2 0  9993,2 51743  53.2153  82.3870 0002168  60.2183 350.9159 15.08860762  1305,6917.816999999999,95.436,541.182,538.182,0.0
51743.0,STARLINK-3512,PAYLOAD,2022-08-05 06:00:02,15.08848163,0.0002052,53.2154,80.89,59.2052,3.5958,-0.0023851,-0.00038056,0.0,0 STARLINK-3512,1 51743U 22016AF  22217.25002315 -.00038056  00000-0 -23851-2 0  9998,2 51743  53.2154  80.8900 0002052  59.2052   3.5958 15.08848163 26708,6917.855,95.437,541.14,538.3009999999998,0.0
51743.0,STARLINK-3512,PAYLOAD,2022-08-05 14:00:01,15.08820438,0.0001978,53.2158,79.3924,65.5661,8.8263,0.0022065,0.00034985,0.0,0 STARLINK-3512,1 51743U 22016AF  22217.58335648  .00034985  00000-0  22065-2 0  9993,2 51743  53.2158  79.3924 0001978  65.5661   8.8263 15.08820438  1304,6917.94,95.439,541.174,538.437,0.0
51743.0,STARLINK-3512,PAYLOAD,2022-08-05 22:00:00,15.08824306,0.000205,53.2159,77.8979,60.9531,24.9417,-0.00047206,-7.79e-05,0.0,0 STARLINK-3512,1 51743U 22016AF  22217.91667824 -.00007790  00000-0 -47206-3 0  9995,2 51743  53.2159  77.8979 0002050  60.9531  24.9417 15.08824306  1303,6917.928000000001,95.439,541.212,538.375,0.0
51743.0,STARLINK-3512,PAYLOAD,2022-08-06 00:00:02,15.08806644,0.0002051,53.216,77.524,59.43,119.4262,0.0020432,0.0003235,0.0,0 STARLINK-3512,1 51743U 22016AF  22218.00002315  .00032350  00000-0  20432-2 0  9993,2 51743  53.2160  77.5240 0002051  59.4300 119.4262 15.08806644 26817,6917.982,95.44,541.266,538.428,0.0
51743.0,STARLINK-3512,PAYLOAD,2022-08-06 14:00:01,15.08826374,0.0001914,53.2161,74.9035,68.1272,40.9266,0.0017778,0.00028109,0.0,0 STARLINK-3512,1 51743U 22016AF  22218.58334491  .00028109  00000-0  17778-2 0  9995,2 51743  53.2161  74.9035 0001914  68.1272  40.9266 15.08826374  1304,6917.922,95.438,541.111,538.4630000000002,0.0
51743.0,STARLINK-3512,PAYLOAD,2022-08-06 22:00:00,15.08835294,0.0002031,53.2161,73.40899999999998,62.7189,57.925,-0.00013653,-2.46e-05,0.0,0 STARLINK-3512,1 51743U 22016AF  22218.91667824 -.00002460  00000-0 -13653-3 0  9994,2 51743  53.2161  73.4090 0002031  62.7189  57.9250 15.08835294  1309,6917.895,95.438,541.165,538.355,0.0
51743.0,STARLINK-3512,PAYLOAD,2022-08-07 14:00:01,15.08843272,0.0001914,53.2161,70.4146,70.6618,73.1702,0.0012467,0.00019611,0.0,0 STARLINK-3512,1 51743U 22016AF  22219.58334491  .00019611  00000-0  12467-2 0  9994,2 51743  53.2161  70.4146 0001914  70.6618  73.1702 15.08843272  1309,6917.87,95.437,541.059,538.411,0.0
51743.0,STARLINK-3512,PAYLOAD,2022-08-07 21:18:51,15.08840871,0.0001928,53.2163,69.0468,66.2798,293.8396,0.00023041,3.381e-05,0.0,0 STARLINK-3512,1 51743U 22016AF  22219.88809647  .00003381  00000-0  23041-3 0  9995,2 51743  53.2163  69.0468 0001928  66.2798 293.8396 15.08840871 25967,6917.878000000002,95.437,541.076,538.409,0.0
51743.0,STARLINK-3512,PAYLOAD,2022-08-08 14:00:01,15.08846011,0.0001797,53.2156,65.9256,71.0413,107.6791,0.0012725,0.00020025,0.0,0 STARLINK-3512,1 51743U 22016AF  22220.58335648  .00020025  00000-0  12725-2 0  9999,2 51743  53.2156  65.9256 0001797  71.0413 107.6791 15.08846011  1306,6917.861999999999,95.437,540.97,538.484,0.0
51743.0,STARLINK-3512,PAYLOAD,2022-08-08 22:00:00,15.08856327,0.0001864,53.2154,64.4311,63.2658,127.0027,-0.00088809,-0.00014401,0.0,0 STARLINK-3512,1 51743U 22016AF  22220.91667824 -.00014401  00000-0 -88809-3 0  9990,2 51743  53.2154  64.4311 0001864  63.2658 127.0027 15.08856327 27250,6917.83,95.437,540.985,538.406,0.0
51743.0,STARLINK-3512,PAYLOAD,2022-08-09 14:00:01,15.08826394,0.0001636,53.2152,61.4365,69.0236,144.445,-0.00028689,-4.849e-05,0.0,0 STARLINK-3512,1 51743U 22016AF  22221.58334491 -.00004849  00000-0 -28689-3 0  9990,2 51743  53.2152  61.4365 0001636  69.0236 144.4450 15.08826394  1309,6917.922,95.438,540.919,538.655,0.0
51743.0,STARLINK-3512,PAYLOAD,2022-08-09 22:00:00,15.08804416,0.0001737,53.215,59.9417,60.1799,164.8671,0.0018257999999999,0.00028861,0.0,0 STARLINK-3512,1 51743U 22016AF  22221.91667824  .00028861  00000-0  18258-2 0  9994,2 51743  53.2150  59.9417 0001737  60.1799 164.8671 15.08804416  1307,6917.989000000001,95.44,541.056,538.653,0.0
51743.0,STARLINK-3512,PAYLOAD,2022-08-10 06:00:00,15.08838387,0.0001626999999999,53.2149,58.4439,62.5793,174.0319,-0.0012825999999999,-0.00020642,0.0,0 STARLINK-3512,1 51743U 22016AF  22222.25001157 -.00020642  00000-0 -12826-2 0  9999,2 51743  53.2149  58.4439 0001627  62.5793 174.0319 15.08838387 27451,6917.885,95.438,540.876,538.625,0.0
